STARLINK-36924          
1 68054U 26041Q   26087.91718543  .00435432  00000+0  27020-2 0  9990
2 68054  53.1595 326.2158 0001446  31.8800 328.2307 15.75230400  4258
